{
    "CCSDS_OMM_VERS": "3.0",
    "COMMENT": "GENERATED VIA SPACE-TRACK.ORG API",
    "CREATION_DATE": "2025-11-23T22:56:29",
    "ORIGINATOR": "18 SPCS",
    "OBJECT_NAME": "BEIDOU 3",
    "OBJECT_ID": "2010-001A",
    "CENTER_NAME": "EARTH",
    "REF_FRAME": "TEME",
    "TIME_SYSTEM": "UTC",
    "MEAN_ELEMENT_THEORY": "SGP4",
    "EPOCH": "2025-11-23T17:34:30.192960",
    "MEAN_MOTION": "1.00268526",
    "ECCENTRICITY": "0.00037100",
    "INCLINATION": "3.8110",
    "RA_OF_ASC_NODE": "60.7955",
    "ARG_OF_PERICENTER": "249.9437",
    "MEAN_ANOMALY": "156.2713",
    "EPHEMERIS_TYPE": "0",
    "CLASSIFICATION_TYPE": "U",
    "NORAD_CAT_ID": "36287",
    "ELEMENT_SET_NO": "999",
    "REV_AT_EPOCH": "5811",
    "BSTAR": "0.00000000000000",
    "MEAN_MOTION_DOT": "-0.00000261",
    "MEAN_MOTION_DDOT": "0.0000000000000",
    "SEMIMAJOR_AXIS": "42165.646",
    "PERIOD": "1436.144",
    "APOAPSIS": "35803.154",
    "PERIAPSIS": "35771.867",
    "OBJECT_TYPE": "PAYLOAD",
    "RCS_SIZE": "LARGE",
    "COUNTRY_CODE": "PRC",
    "LAUNCH_DATE": "2010-01-16",
    "SITE": "XSC",
    "DECAY_DATE": null,
    "FILE": "4896270",
    "GP_ID": "303350324",
    "TLE_LINE0": "0 BEIDOU 3",
    "TLE_LINE1": "1 36287U 10001A   25327.73229390 -.00000261  00000-0  00000+0 0  9991",
    "TLE_LINE2": "2 36287   3.8110  60.7955 0003710 249.9437 156.2713  1.00268526 58112"
}